[
    {
        "Altitude(m)": 569363.5688223457,
        "Argument of Periapsis(deg)": -0.03013754771062987,
        "Eccentricity": 0.0,
        "Inclination(deg)": 97.0,
        "Latitude(deg)": 41.01474813876088,
        "Longitude(deg)": -19.233483804956737,
        "Mean Anomaly(deg)": 41.32929102558335,
        "RAAN(deg)": 90.0079294048247,
        "Satellite Name": "Starlink Shell 3 1815",
        "Satellite Number": 1815,
        "Semi-Major Axis(m)": 6938478.169268562,
        "Time(s)": 760
    },
    {
        "Altitude(m)": 569497.6438143804,
        "Argument of Periapsis(deg)": -0.030534094391032898,
        "Eccentricity": 0.0,
        "Inclination(deg)": 97.0,
        "Latitude(deg)": 41.63296538432791,
        "Longitude(deg)": -19.40980142916058,
        "Mean Anomaly(deg)": 41.95476722328834,
        "RAAN(deg)": 90.00803373909869,
        "Satellite Name": "Starlink Shell 3 1815",
        "Satellite Number": 1815,
        "Semi-Major Axis(m)": 6938478.169268562,
        "Time(s)": 770
    },
    {
        "Altitude(m)": 569632.7618591053,
        "Argument of Periapsis(deg)": -0.030930641071435925,
        "Eccentricity": 0.0,
        "Inclination(deg)": 97.0,
        "Latitude(deg)": 42.250948593365315,
        "Longitude(deg)": -19.588710089900623,
        "Mean Anomaly(deg)": 42.58024342099336,
        "RAAN(deg)": 90.0081380733727,
        "Satellite Name": "Starlink Shell 3 1815",
        "Satellite Number": 1815,
        "Semi-Major Axis(m)": 6938478.169268562,
        "Time(s)": 780
    },
    {
        "Altitude(m)": 569768.8367951318,
        "Argument of Periapsis(deg)": -0.031327187751838945,
        "Eccentricity": 0.0,
        "Inclination(deg)": 97.0,
        "Latitude(deg)": 42.86869084359176,
        "Longitude(deg)": -19.770317043730824,
        "Mean Anomaly(deg)": 43.20571961869835,
        "RAAN(deg)": 90.0082424076467,
        "Satellite Name": "Starlink Shell 3 1815",
        "Satellite Number": 1815,
        "Semi-Major Axis(m)": 6938478.169268562,
        "Time(s)": 790
    },
    {
        "Altitude(m)": 569905.7822446491,
        "Argument of Periapsis(deg)": -0.031723734432241975,
        "Eccentricity": 0.0,
        "Inclination(deg)": 97.0,
        "Latitude(deg)": 43.4861849117737,
        "Longitude(deg)": -19.954735510579894,
        "Mean Anomaly(deg)": 43.83119581640349,
        "RAAN(deg)": 90.0083467419207,
        "Satellite Name": "Starlink Shell 3 1815",
        "Satellite Number": 1815,
        "Semi-Major Axis(m)": 6938478.169268562,
        "Time(s)": 800
    },
    {
        "Altitude(m)": 570043.5116575325,
        "Argument of Periapsis(deg)": -0.032120281112645,
        "Eccentricity": 0.0,
        "Inclination(deg)": 97.0,
        "Latitude(deg)": 44.103423250975375,
        "Longitude(deg)": -20.14208453000257,
        "Mean Anomaly(deg)": 44.45667201410849,
        "RAAN(deg)": 90.00845107619473,
        "Satellite Name": "Starlink Shell 3 1815",
        "Satellite Number": 1815,
        "Semi-Major Axis(m)": 6938478.169268562,
        "Time(s)": 810
    },
    {
        "Altitude(m)": 570181.9383554868,
        "Argument of Periapsis(deg)": -0.03251682779304802,
        "Eccentricity": 0.0,
        "Inclination(deg)": 97.0,
        "Latitude(deg)": 44.72039796597061,
        "Longitude(deg)": -20.332488845794632,
        "Mean Anomaly(deg)": 45.08214821181348,
        "RAAN(deg)": 90.00855541046873,
        "Satellite Name": "Starlink Shell 3 1815",
        "Satellite Number": 1815,
        "Semi-Major Axis(m)": 6938478.169268562,
        "Time(s)": 820
    },
    {
        "Altitude(m)": 570320.9755761131,
        "Argument of Periapsis(deg)": -0.032913374473451044,
        "Eccentricity": 0.0,
        "Inclination(deg)": 97.0,
        "Latitude(deg)": 45.33710078664123,
        "Longitude(deg)": -20.526080334464023,
        "Mean Anomaly(deg)": 45.70762440951861,
        "RAAN(deg)": 90.00865974474274,
        "Satellite Name": "Starlink Shell 3 1815",
        "Satellite Number": 1815,
        "Semi-Major Axis(m)": 6938478.169268562,
        "Time(s)": 830
    },
    {
        "Altitude(m)": 570460.5365169822,
        "Argument of Periapsis(deg)": -0.03330992115385407,
        "Eccentricity": 0.0,
        "Inclination(deg)": 97.0,
        "Latitude(deg)": 45.95352303917791,
        "Longitude(deg)": -20.722997954716615,
        "Mean Anomaly(deg)": 46.3331006072236,
        "RAAN(deg)": 90.00876407901674,
        "Satellite Name": "Starlink Shell 3 1815",
        "Satellite Number": 1815,
        "Semi-Major Axis(m)": 6938478.169268562,
        "Time(s)": 840
    },
    {
        "Altitude(m)": 570600.5343796109,
        "Argument of Periapsis(deg)": -0.0337064678342571,
        "Eccentricity": 0.0,
        "Inclination(deg)": 97.0,
        "Latitude(deg)": 46.569655614871536,
        "Longitude(deg)": -20.923387734040425,
        "Mean Anomaly(deg)": 46.9585768049287,
        "RAAN(deg)": 90.00886841329077,
        "Satellite Name": "Starlink Shell 3 1815",
        "Satellite Number": 1815,
        "Semi-Major Axis(m)": 6938478.169268562,
        "Time(s)": 850
    },
    {
        "Altitude(m)": 570740.8824133745,
        "Argument of Periapsis(deg)": -0.03410301451466012,
        "Eccentricity": 0.0,
        "Inclination(deg)": 97.0,
        "Latitude(deg)": 47.18548893625631,
        "Longitude(deg)": -21.12740447691602,
        "Mean Anomaly(deg)": 47.58405300263372,
        "RAAN(deg)": 90.00897274756477,
        "Satellite Name": "Starlink Shell 3 1815",
        "Satellite Number": 1815,
        "Semi-Major Axis(m)": 6938478.169268562,
        "Time(s)": 860
    },
    {
        "Altitude(m)": 570881.4939592928,
        "Argument of Periapsis(deg)": -0.034499561195063144,
        "Eccentricity": 0.0,
        "Inclination(deg)": 97.0,
        "Latitude(deg)": 47.80101292035366,
        "Longitude(deg)": -21.335210996182727,
        "Mean Anomaly(deg)": 48.20952920033872,
        "RAAN(deg)": 90.00907708183877,
        "Satellite Name": "Starlink Shell 3 1815",
        "Satellite Number": 1815,
        "Semi-Major Axis(m)": 6938478.169268562,
        "Time(s)": 870
    },
    {
        "Altitude(m)": 571022.2824936818,
        "Argument of Periapsis(deg)": -0.03489610787546617,
        "Eccentricity": 0.0,
        "Inclination(deg)": 97.0,
        "Latitude(deg)": 48.41621693871688,
        "Longitude(deg)": -21.54697991485715,
        "Mean Anomaly(deg)": 48.83500539804385,
        "RAAN(deg)": 90.0091814161128,
        "Satellite Name": "Starlink Shell 3 1815",
        "Satellite Number": 1815,
        "Semi-Major Axis(m)": 6938478.169268562,
        "Time(s)": 880
    },
    {
        "Altitude(m)": 571163.1616716902,
        "Argument of Periapsis(deg)": -0.0352926545558692,
        "Eccentricity": 0.0,
        "Inclination(deg)": 97.0,
        "Latitude(deg)": 49.031089773961,
        "Longitude(deg)": -21.762893840864393,
        "Mean Anomaly(deg)": 49.460481595748846,
        "RAAN(deg)": 90.0092857503868,
        "Satellite Name": "Starlink Shell 3 1815",
        "Satellite Number": 1815,
        "Semi-Major Axis(m)": 6938478.169268562,
        "Time(s)": 890
    },
    {
        "Altitude(m)": 571304.0453706256,
        "Argument of Periapsis(deg)": -0.035689201236272214,
        "Eccentricity": 0.0,
        "Inclination(deg)": 97.0,
        "Latitude(deg)": 49.6456195724148,
        "Longitude(deg)": -21.98314560109331,
        "Mean Anomaly(deg)": 50.085957793453936,
        "RAAN(deg)": 90.00939008466081,
        "Satellite Name": "Starlink Shell 3 1815",
        "Satellite Number": 1815,
        "Semi-Major Axis(m)": 6938478.169268562,
        "Time(s)": 900
    },
    {
        "Altitude(m)": 571444.847733104,
        "Argument of Periapsis(deg)": -0.036085747916675244,
        "Eccentricity": 0.0,
        "Inclination(deg)": 97.0,
        "Latitude(deg)": 50.259793792486235,
        "Longitude(deg)": -22.20794005371419,
        "Mean Anomaly(deg)": 50.711433991158955,
        "RAAN(deg)": 90.0094944189348,
        "Satellite Name": "Starlink Shell 3 1815",
        "Satellite Number": 1815,
        "Semi-Major Axis(m)": 6938478.169268562,
        "Time(s)": 910
    },
    {
        "Altitude(m)": 571585.4832099997,
        "Argument of Periapsis(deg)": -0.03648229459707827,
        "Eccentricity": 0.0,
        "Inclination(deg)": 97.0,
        "Latitude(deg)": 50.873599148296336,
        "Longitude(deg)": -22.437494459793655,
        "Mean Anomaly(deg)": 51.33691018886397,
        "RAAN(deg)": 90.0095987532088,
        "Satellite Name": "Starlink Shell 3 1815",
        "Satellite Number": 1815,
        "Semi-Major Axis(m)": 6938478.169268562,
        "Time(s)": 920
    },
    {
        "Altitude(m)": 571725.866603154,
        "Argument of Periapsis(deg)": -0.0368788412774813,
        "Eccentricity": 0.0,
        "Inclination(deg)": 97.0,
        "Latitude(deg)": 51.487021548069094,
        "Longitude(deg)": -22.672038934658264,
        "Mean Anomaly(deg)": 51.962386386569065,
        "RAAN(deg)": 90.00970308748283,
        "Satellite Name": "Starlink Shell 3 1815",
        "Satellite Number": 1815,
        "Semi-Major Axis(m)": 6938478.169268562,
        "Time(s)": 930
    },
    {
        "Altitude(m)": 571865.9131078136,
        "Argument of Periapsis(deg)": -0.037275387957884314,
        "Eccentricity": 0.0,
        "Inclination(deg)": 97.0,
        "Latitude(deg)": 52.100046026705044,
        "Longitude(deg)": -22.911818500367662,
        "Mean Anomaly(deg)": 52.587862584274085,
        "RAAN(deg)": 90.00980742175683,
        "Satellite Name": "Starlink Shell 3 1815",
        "Satellite Number": 1815,
        "Semi-Major Axis(m)": 6938478.169268562,
        "Time(s)": 940
    }
]